{
  "norad_id": 53799,
  "name": "STARLINK-4710",
  "history": [
    {
      "epoch": "2026-03-28T16:32:35.254752",
      "apogee_km": 540.570634270065,
      "perigee_km": 538.9037033103532,
      "latitude_deg": -13.078441949835721,
      "longitude_deg": -13.92749472009018,
      "semi_major_axis_km": 6917.874168790208,
      "eccentricity": 0.00012048,
      "inclination_deg": 53.2177,
      "raan_deg": 178.8992,
      "arg_perigee_deg": 94.0142,
      "mean_anomaly_deg": 266.0988,
      "mean_motion_rev_day": 15.08842035
    }
  ]
}