{"fetched_at":"2026-03-29T16:36:15Z","count":15609,"tles":[{"name":"STARLINK-4710","line1":"1 53799U 22111AC  26087.68929693  .00000888  00000+0  73840-4 0  9994","line2":"2 53799  53.2177 178.8992 0001204  94.0142 266.0988 15.08842035196686","category":"Starlink"}]}